{
  "type": "FeatureCollection",
  "features": [
    {
      "type": "Feature",
      "properties": {
        "norad_id": 66570,
        "name": "STARLINK-35834",
        "group": "last-30-days",
        "lat": 41.352920696241284,
        "lon": -166.10602556390162,
        "alt_km": 409.64782523149825,
        "timestamp": "2025-12-12T09:49:07.481381+00:00",
        "meta_object_name": "STARLINK-35834",
        "meta_object_id": "2025-268P",
        "meta_epoch": "2025-12-12T04:00:01.998720",
        "meta_mean_motion": 15.50497913,
        "meta_eccentricity": 0.0001639,
        "meta_inclination": 43.0003,
        "meta_ra_of_asc_node": 124.487,
        "meta_arg_of_pericenter": 260.3628,
        "meta_mean_anomaly": 260.5752,
        "meta_ephemeris_type": 0,
        "meta_classification_type": "U",
        "meta_norad_cat_id": 66570,
        "meta_element_set_no": 999,
        "meta_rev_at_epoch": 457,
        "meta_bstar": 0.0016729,
        "meta_mean_motion_dot": 0.00098758,
        "meta_mean_motion_ddot": 0,
        "tle_line1": "1 66570U 25268P   25346.16668980  .00098758  00000+0  16729-2 0  9994",
        "tle_line2": "2 66570  43.0003 124.4870 0001639 260.3628 260.5752 15.50497913  4575"
      },
      "geometry": {
        "type": "Point",
        "coordinates": [
          -166.10602556390162,
          41.352920696241284
        ]
      }
    },
    {
      "type": "Feature",
      "properties": {
        "norad_id": 66571,
        "name": "STARLINK-35836",
        "group": "last-30-days",
        "lat": 41.75986358413975,
        "lon": -163.57424791531807,
        "alt_km": 409.6361334584635,
        "timestamp": "2025-12-12T09:49:07.481394+00:00",
        "meta_object_name": "STARLINK-35836",
        "meta_object_id": "2025-268Q",
        "meta_epoch": "2025-12-12T04:00:01.998720",
        "meta_mean_motion": 15.50547612,
        "meta_eccentricity": 0.0001785,
        "meta_inclination": 43.0003,
        "meta_ra_of_asc_node": 124.4821,
        "meta_arg_of_pericenter": 268.7634,
        "meta_mean_anomaly": 254.0838,
        "meta_ephemeris_type": 0,
        "meta_classification_type": "U",
        "meta_norad_cat_id": 66571,
        "meta_element_set_no": 999,
        "meta_rev_at_epoch": 457,
        "meta_bstar": 0.0003388,
        "meta_mean_motion_dot": 0.00019562,
        "meta_mean_motion_ddot": 0,
        "tle_line1": "1 66571U 25268Q   25346.16668980  .00019562  00000+0  33880-3 0  9999",
        "tle_line2": "2 66571  43.0003 124.4821 0001785 268.7634 254.0838 15.50547612  4578"
      },
      "geometry": {
        "type": "Point",
        "coordinates": [
          -163.57424791531807,
          41.75986358413975
        ]
      }
    },
    {
      "type": "Feature",
      "properties": {
        "norad_id": 66572,
        "name": "STARLINK-35870",
        "group": "last-30-days",
        "lat": 42.107224789053554,
        "lon": -161.03588820143287,
        "alt_km": 409.5580959690551,
        "timestamp": "2025-12-12T09:49:07.481404+00:00",
        "meta_object_name": "STARLINK-35870",
        "meta_object_id": "2025-268R",
        "meta_epoch": "2025-12-12T04:00:01.998720",
        "meta_mean_motion": 15.50548765,
        "meta_eccentricity": 0.000175,
        "meta_inclination": 43.0003,
        "meta_ra_of_asc_node": 124.4785,
        "meta_arg_of_pericenter": 270.444,
        "meta_mean_anomaly": 254.3224,
        "meta_ephemeris_type": 0,
        "meta_classification_type": "U",
        "meta_norad_cat_id": 66572,
        "meta_element_set_no": 999,
        "meta_rev_at_epoch": 457,
        "meta_bstar": 0.00033134,
        "meta_mean_motion_dot": 0.00019123,
        "meta_mean_motion_ddot": 0,
        "tle_line1": "1 66572U 25268R   25346.16668980  .00019123  00000+0  33134-3 0  9995",
        "tle_line2": "2 66572  43.0003 124.4785 0001750 270.4440 254.3224 15.50548765  4577"
      },
      "geometry": {
        "type": "Point",
        "coordinates": [
          -161.03588820143287,
          42.107224789053554
        ]
      }
    },
    {
      "type": "Feature",
      "properties": {
        "norad_id": 66573,
        "name": "STARLINK-35650",
        "group": "last-30-days",
        "lat": 42.4052831735567,
        "lon": -158.4033442997847,
        "alt_km": 409.3718258232575,
        "timestamp": "2025-12-12T09:49:07.481415+00:00",
        "meta_object_name": "STARLINK-35650",
        "meta_object_id": "2025-268S",
        "meta_epoch": "2025-12-12T04:00:01.998720",
        "meta_mean_motion": 15.50663618,
        "meta_eccentricity": 0.0001663,
        "meta_inclination": 43.0005,
        "meta_ra_of_asc_node": 124.4726,
        "meta_arg_of_pericenter": 268.0784,
        "meta_mean_anomaly": 258.5945,
        "meta_ephemeris_type": 0,
        "meta_classification_type": "U",
        "meta_norad_cat_id": 66573,
        "meta_element_set_no": 999,
        "meta_rev_at_epoch": 457,
        "meta_bstar": -0.0022968,
        "meta_mean_motion_dot": -0.0013322,
        "meta_mean_motion_ddot": 0,
        "tle_line1": "1 66573U 25268S   25346.16668980 -.00133220  00000+0 -22968-2 0  9995",
        "tle_line2": "2 66573  43.0005 124.4726 0001663 268.0784 258.5945 15.50663618  4573"
      },
      "geometry": {
        "type": "Point",
        "coordinates": [
          -158.4033442997847,
          42.4052831735567
        ]
      }
    },
    {
      "type": "Feature",
      "properties": {
        "norad_id": 66574,
        "name": "STARLINK-35812",
        "group": "last-30-days",
        "lat": 42.62908777595497,
        "lon": -155.9099519590539,
        "alt_km": 409.4499795109987,
        "timestamp": "2025-12-12T09:49:07.481428+00:00",
        "meta_object_name": "STARLINK-35812",
        "meta_object_id": "2025-268T",
        "meta_epoch": "2025-12-12T04:00:01.998720",
        "meta_mean_motion": 15.50496989,
        "meta_eccentricity": 0.0001629,
        "meta_inclination": 43.0002,
        "meta_ra_of_asc_node": 124.4679,
        "meta_arg_of_pericenter": 267.1364,
        "meta_mean_anomaly": 261.4861,
        "meta_ephemeris_type": 0,
        "meta_classification_type": "U",
        "meta_norad_cat_id": 66574,
        "meta_element_set_no": 999,
        "meta_rev_at_epoch": 457,
        "meta_bstar": 0.0016743,
        "meta_mean_motion_dot": 0.00098844,
        "meta_mean_motion_ddot": 0,
        "tle_line1": "1 66574U 25268T   25346.16668980  .00098844  00000+0  16743-2 0  9990",
        "tle_line2": "2 66574  43.0002 124.4679 0001629 267.1364 261.4861 15.50496989  4579"
      },
      "geometry": {
        "type": "Point",
        "coordinates": [
          -155.9099519590539,
          42.62908777595497
        ]
      }
    },
    {
      "type": "Feature",
      "properties": {
        "norad_id": 66575,
        "name": "STARLINK-35810",
        "group": "last-30-days",
        "lat": 42.805017004251276,
        "lon": -153.28749819699047,
        "alt_km": 409.36567051613656,
        "timestamp": "2025-12-12T09:49:07.481439+00:00",
        "meta_object_name": "STARLINK-35810",
        "meta_object_id": "2025-268U",
        "meta_epoch": "2025-12-12T04:00:01.998720",
        "meta_mean_motion": 15.50546165,
        "meta_eccentricity": 0.0001582,
        "meta_inclination": 43.0003,
        "meta_ra_of_asc_node": 124.463,
        "meta_arg_of_pericenter": 272.913,
        "meta_mean_anomaly": 257.6184,
        "meta_ephemeris_type": 0,
        "meta_classification_type": "U",
        "meta_norad_cat_id": 66575,
        "meta_element_set_no": 999,
        "meta_rev_at_epoch": 457,
        "meta_bstar": 0.00026184,
        "meta_mean_motion_dot": 0.00015031,
        "meta_mean_motion_ddot": 0,
        "tle_line1": "1 66575U 25268U   25346.16668980  .00015031  00000+0  26184-3 0  9999",
        "tle_line2": "2 66575  43.0003 124.4630 0001582 272.9130 257.6184 15.50546165  4578"
      },
      "geometry": {
        "type": "Point",
        "coordinates": [
          -153.28749819699047,
          42.805017004251276
        ]
      }
    },
    {
      "type": "Feature",
      "properties": {
        "norad_id": 66576,
        "name": "STARLINK-35814",
        "group": "last-30-days",
        "lat": 42.918830141196345,
        "lon": -150.70349995205507,
        "alt_km": 409.3569713018687,
        "timestamp": "2025-12-12T09:49:07.481449+00:00",
        "meta_object_name": "STARLINK-35814",
        "meta_object_id": "2025-268V",
        "meta_epoch": "2025-12-12T04:00:01.998720",
        "meta_mean_motion": 15.50501644,
        "meta_eccentricity": 0.0001555,
        "meta_inclination": 43.0003,
        "meta_ra_of_asc_node": 124.458,
        "meta_arg_of_pericenter": 268.8071,
        "meta_mean_anomaly": 263.6477,
        "meta_ephemeris_type": 0,
        "meta_classification_type": "U",
        "meta_norad_cat_id": 66576,
        "meta_element_set_no": 999,
        "meta_rev_at_epoch": 457,
        "meta_bstar": 0.001544,
        "meta_mean_motion_dot": 0.00091044,
        "meta_mean_motion_ddot": 0,
        "tle_line1": "1 66576U 25268V   25346.16668980  .00091044  00000+0  15440-2 0  9990",
        "tle_line2": "2 66576  43.0003 124.4580 0001555 268.8071 263.6477 15.50501644  4576"
      },
      "geometry": {
        "type": "Point",
        "coordinates": [
          -150.70349995205507,
          42.918830141196345
        ]
      }
    }
  ]
}